{
  "norad_id": 63378,
  "name": "STARLINK-33640",
  "history": [
    {
      "epoch": "2026-03-28T21:48:15.107616Z",
      "apogee_km": 475.81329673226173,
      "perigee_km": 474.63753387629185,
      "latitude_deg": 4.0102166834964826e-05,
      "longitude_deg": 169.68427901368278,
      "height_km": 475.8379019986295,
      "semi_major_axis_km": 6853.3624153042765,
      "eccentricity": 8.578e-05,
      "inclination_deg": 53.1608,
      "raan_deg": 323.0694,
      "arg_perigee_deg": 60.8486,
      "mean_anomaly_deg": 299.2601,
      "mean_motion_rev_day": 15.30196535
    },
    {
      "epoch": "2026-03-28T23:22:18.259680Z",
      "apogee_km": 475.92086382027173,
      "perigee_km": 474.46247547937037,
      "latitude_deg": 8.527467424050263e-06,
      "longitude_deg": 145.80344519199477,
      "height_km": 475.93664909476746,
      "semi_major_axis_km": 6853.328669649821,
      "eccentricity": 0.0001064,
      "inclination_deg": 53.1615,
      "raan_deg": 322.7661,
      "arg_perigee_deg": 77.8421,
      "mean_anomaly_deg": 282.2699,
      "mean_motion_rev_day": 15.30207837
    }
  ]
}